YOUTHSAT                
1 37388U 11015B   25287.20769248  .00000359  00000+0  16909-3 0  9993
2 37388  98.3402 267.7981 0014358 349.4398  20.9343 14.25468623752598
APRIZESAT 6             
1 37793U 11044F   25287.32260892  .00001260  00000+0  18666-3 0  9993
2 37793  98.2452 187.7094 0044143 150.6469 328.2125 14.76339078760862
JUGNU                   
1 37839U 11058B   25287.31839870  .00000594  00000+0  17041-3 0  9991
2 37839  19.9622   2.0489 0018403 241.2715 180.8464 14.13658298724193
SRMSAT                  
1 37841U 11058D   25286.85303660  .00000481  00000+0  11770-3 0  9993
2 37841  19.9711 110.3894 0011770  14.0368  14.3762 14.11480168722971
SUOMI NPP               
1 37849U 11061A   25287.27423988  .00000168  00000+0  10058-3 0  9998
2 37849  98.7669 225.1795 0001139  10.8098 349.3103 14.19529701723553
YAOGAN-12               
1 37875U 11066B   25287.28259140  .00010337  00000+0  43604-3 0  9992
2 37875  97.1515 332.4365 0010390  19.3111 340.8518 15.23426831774568
ZIYUAN 3-1 (ZY 3-1)     
1 38046U 12001A   25287.27139365  .00050109  00000+0  61990-3 0  9997
2 38046  97.1858 352.6735 0003041 172.2786 187.8519 15.59954863765678
BEIDOU-2 M4             
1 38251U 12018B   25287.19422759 -.00000047  00000+0  00000+0 0  9994
2 38251  55.8711 312.3933 0015742 269.2944  90.5692  1.86232056 91360
ARIRANG-3 (KOMPSAT-3)   
1 38338U 12025B   25287.32310528  .00000860  00000+0  18278-3 0  9995
2 38338  98.3212 241.5022 0006539 140.8263 219.3412 14.61592975715425
HORYU-2                 
1 38340U 12025D   25287.32576455  .00005485  00000+0  59324-3 0  9996
2 38340  98.1904  46.0737 0007573 264.1437  95.8915 14.88698749712110
CSSWE                   
1 38761U 12048D   25287.13567845  .00025572  00000+0  76468-3 0  9997
2 38761  64.6627 198.0768 0101689 241.9417 117.1402 15.29484738 78574
CP5                     
1 38763U 12048F   25287.17830239  .00017203  00000+0  66213-3 0  9992
2 38763  64.6476 240.9448 0125760 245.2582 113.5414 15.19382316 79275
METOP-B                 
1 38771U 12049A   25287.24023479  .00000179  00000+0  10194-3 0  9991
2 38771  98.6893 338.1798 0001980   4.1879 355.9315 14.21375777678328
SJ-9A                   
1 38860U 12056A   25287.24463914  .00001912  00000+0  23036-3 0  9995
2 38860  97.6411 263.6966 0025676 350.7433   9.3305 14.84749533663085
COSMOS 2484             
1 39059U 13001C   25287.31733977  .00000025  00000+0  10743-3 0  9999
2 39059  82.5081  14.7845 0026329 207.3220 152.6476 12.42928030578012
SARAL                   
1 39086U 13009A   25287.29691137  .00000187  00000+0  84831-4 0  9994
2 39086  98.5538 111.9965 0001023 324.3343  35.7773 14.32726231660393
AAUSAT 3                
1 39087U 13009B   25287.22848262  .00001142  00000+0  38005-3 0  9994
2 39087  98.3669 111.7288 0010672 227.8212 132.2071 14.39453589661783
STRAND-1                
1 39090U 13009E   25287.27407648  .00000534  00000+0  19493-3 0  9996
2 39090  98.3849 108.6876 0007659 243.1225 116.9179 14.36927661661749
BRITE-AUSTRIA           
1 39091U 13009F   25287.25601044  .00000347  00000+0  13291-3 0  9993
2 39091  98.3913 107.9070 0009103 252.8751 107.1439 14.36383791661748
UNIBRITE                
1 39092U 13009G   25287.24626404  .00000340  00000+0  13116-3 0  9999
2 39092  98.3952 107.9469 0008049 248.4665 111.5663 14.36255270661688
AIST-2 (RS-43)          
1 39133U 13015D   25287.33588662  .00007880  00000+0  34323-3 0  9994
2 39133  64.8720 339.1248 0031276 264.0418  95.7145 15.22433003686422
GAOFEN-1                
1 39150U 13018A   25287.33706365  .00001108  00000+0  16605-3 0  9998
2 39150  97.9389 359.0258 0017486 342.5140  17.5466 14.76493663671969
NEE-01 PEGASO           
1 39151U 13018B   25287.27258766  .00004459  00000+0  44841-3 0  9994
2 39151  98.0904  59.1474 0012070 252.3910 107.5990 14.91713330674014
TURKSAT-3USAT           
1 39152U 13018C   25287.17780500  .00005988  00000+0  56499-3 0  9990
2 39152  97.8036  14.3036 0012445 194.9877 165.0976 14.94080551674326
CUBEBUG-1 (CAPITAN BETO)
1 39153U 13018D   25287.13651900  .00006198  00000+0  57376-3 0  9997
2 39153  98.1369  71.9902 0011656 239.6936 120.3131 14.94849324674279
PROBA-V                 
1 39159U 13021A   25287.25757672  .00000143  00000+0  80737-4 0  9995
2 39159  98.3340 273.3957 0005132 123.4894 236.6776 14.23524441646120
ESTCUBE 1               
1 39161U 13021C   25287.11554957  .00002880  00000+0  38458-3 0  9996
2 39161  97.7663 344.6203 0009824  97.7637 262.4692 14.80268487668609
ARIRANG-5 (KOMPSAT-5)   
1 39227U 13042A   25287.35117034 -.00000181  00000+0 -86204-5 0  9997
2 39227  97.6197 112.4895 0000972 248.3563 111.7560 15.04492810666893
GONETS-M 5              
1 39249U 13048A   25287.27647623  .00000032  00000+0  15639-3 0  9995
2 39249  82.4796 136.6982 0016984  30.5651 329.6415 12.42870767548335
GONETS-M 7              
1 39251U 13048C   25287.24434619  .00000022  00000+0  85327-4 0  9995
2 39251  82.4868 139.5116 0017836  31.5296 328.6849 12.42903836548280
FENGYUN 3C              
1 39260U 13052A   25287.23446755  .00000164  00000+0  10435-3 0  9997
2 39260  98.4694 267.8373 0015048  16.0107 344.1541 14.15667848623767
CASSIOPE                
1 39265U 13055A   25287.26979535  .00050743 -31857-6  72642-3 0  9993
2 39265  80.9415   1.1984 0362175 160.6031 200.9403 15.05805304630400
APRIZESAT 7             
1 39416U 13066A   25287.28581150  .00003112  00000+0  32013-3 0  9991
2 39416  97.7364 239.7031 0035133 308.2939  51.5120 14.90597134644589
ZACUBE-1 (TSHEPISOSAT)  
1 39417U 13066B   25287.16626695  .00009574  00000+0  79878-3 0  9991
2 39417  97.7955 243.6984 0042381 352.5855   7.4735 14.98087404643852
APRIZESAT 8             
1 39425U 13066K   25287.31185946  .00002246  00000+0  25302-3 0  9998
2 39425  97.7894 233.8070 0047197  16.9012 343.3764 14.86839593643121
CINEMA-3 (KHUSAT-2)     
1 39426U 13066L   25287.29858924  .00003019  00000+0  40552-3 0  9992
2 39426  97.8397 200.9980 0090129 289.1813  69.9659 14.77252370638133
TRITON-1                
1 39427U 13066M   25287.28942172  .00005399  00000+0  67207-3 0  9990
2 39427  97.8276 197.8494 0091848 315.8956  43.4956 14.79938041637693
DELFI-N3XT              
1 39428U 13066N   25287.28804398  .00011427  00000+0  11072-2 0  9995
2 39428  97.8281 203.6177 0079881 303.8261  55.5370 14.90466798637932
GOMX-1                  
1 39430U 13066Q   25287.27679584  .00002946  00000+0  45594-3 0  9997
2 39430  97.6673 138.1190 0131904 146.1562 214.8151 14.68205654633819
BRITE-PL1 (LEM)         
1 39431U 13066R   25287.31032757  .00001013  00000+0  21155-3 0  9999
2 39431  97.7739  52.6922 0192445  56.3049 305.6331 14.50869442628271
ICUBE-1                 
1 39432U 13066S   25287.12571343  .00016197  00000+0  79967-3 0  9991
2 39432  97.5502 266.4773 0022319 108.5807 251.7854 15.17742523646984
HUMSAT-D                
1 39433U 13066T   25287.24306465  .00069754  00000+0  14061-2 0  9996
2 39433  97.5061 286.2549 0010020  46.0185 314.1889 15.46259549648568
VELOX-PII               
1 39438U 13066Y   25287.26625964  .00005918  00000+0  58760-3 0  9998
2 39438  97.8421 234.1809 0057174  77.4678 283.2927 14.90878661641161
FIRST-MOVE              
1 39439U 13066Z   25287.20524690  .00075175  00000+0  18312-2 0  9997
2 39439  97.7523 267.5217 0014385 252.7408 107.2264 15.40541028644312
CUBEBUG-2 (LO-74)       
1 39440U 13066AA  25287.29902009  .00005467  00000+0  53806-3 0  9997
2 39440  97.8602 231.1239 0062213 120.6321 240.1052 14.91040863640318
NEE-02 KRYSAOR          
1 39441U 13066AB  25287.29177667  .00003255  00000+0  37170-3 0  9991
2 39441  97.8631 223.8598 0068688 154.2171 206.2494 14.85065102639682
FUNCUBE-1 (AO-73)       
1 39444U 13066AE  25287.15897261  .00012325  00000+0  86979-3 0  9997
2 39444  97.7983 249.8004 0038449 322.3406  37.5129 15.04494279642604
HINCUBE                 
1 39445U 13066AF  25287.14375737  .00011804  00000+0  85713-3 0  9992
2 39445  97.7663 248.2726 0034940 329.5004  30.4189 15.03544336642493
UWE-3                   
1 39446U 13066AG  25286.83644656  .00007021  00000+0  64336-3 0  9991
2 39446  97.8377 237.2239 0053811  61.0383 299.6217 14.94119991640752
SMDC ONE 2.4            
1 39469U 13072H   25287.31666321  .00015495  00000+0  67181-3 0  9995
2 39469 120.4943 127.9862 0171792 107.5301 254.4617 15.10383684 80584
CP8 (IPEX)              
1 39471U 13072K   25287.28574197  .00012367  00000+0  63866-3 0  9994
2 39471 120.4691  87.7775 0188765  97.1704 265.0863 15.02754650 78205
COSMOS 2488             
1 39483U 13076A   25287.36126123  .00000022  00000+0  90580-4 0  9991
2 39483  82.4845 321.8997 0017927 270.8173  89.0853 12.42867692535354
COSMOS 2489             
1 39484U 13076B   25287.33352957  .00000033  00000+0  17000-3 0  9992
2 39484  82.4883 323.2184 0019708 271.2204  88.6618 12.42869385535401
COSMOS 2490             
1 39485U 13076C   25287.30501288  .00000027  00000+0  12507-3 0  9993
2 39485  82.4827 321.4096 0019882 288.4157  71.4761 12.42866939535335
AIST-1 (RS-41)          
1 39492U 13078C   25287.28753164  .00002529  00000+0  22840-3 0  9992
2 39492  82.4159 148.9262 0017979  26.2322 333.9806 14.94994311638497
KAZEOSAT 1              
1 39731U 14024A   25287.25642653  .00000339  00000+0  11636-3 0  9995
2 39731  98.3493   0.4814 0001155 101.3136 258.8184 14.42063266603116
COSMOS 2496             
1 39761U 14028A   25287.10172648  .00000057  00000+0  34307-3 0  9995
2 39761  82.4413 262.8377 0018441 256.5406 103.3619 12.42895608516944
COSMOS 2497             
1 39762U 14028B   25287.31967679  .00000046  00000+0  26491-3 0  9998
2 39762  82.4461 264.2959 0018959 250.2729 109.6306 12.42867747516971
COSMOS 2498             
1 39763U 14028C   25287.31628080  .00000033  00000+0  16743-3 0  9994
2 39763  82.4423 262.8923 0019666 249.7574 110.1392 12.42969331517001
